[
    {
        "Altitude(m)": 617719.7335973842,
        "Argument of Periapsis(deg)": 0.0,
        "Eccentricity": 0.0,
        "Inclination(deg)": 60.0,
        "Latitude(deg)": -41.10253900338443,
        "Longitude(deg)": 150.09455838218173,
        "Mean Anomaly(deg)": 229.09089999999998,
        "RAAN(deg)": 40.0,
        "Satellite Name": "Test1 190",
        "Satellite Number": 190,
        "Semi-Major Axis(m)": 6980739.136638005,
        "Time(s)": 0
    },
    {
        "Altitude(m)": 617911.269758515,
        "Argument of Periapsis(deg)": 0.00010418945913296404,
        "Eccentricity": 0.0,
        "Inclination(deg)": 60.0,
        "Latitude(deg)": -41.56573189354722,
        "Longitude(deg)": 150.5989626934464,
        "Mean Anomaly(deg)": 229.71100614546188,
        "RAAN(deg)": 39.99957995086026,
        "Satellite Name": "Test1 190",
        "Satellite Number": 190,
        "Semi-Major Axis(m)": 6980739.136638005,
        "Time(s)": 10
    }
]